[{"OBJECT_NAME":"FLOCK 4H-34","OBJECT_ID":"2025-276BZ","EPOCH":"2026-03-09T04:19:28.608672","MEAN_MOTION":15.1928367,"ECCENTRICITY":0.00010193,"INCLINATION":97.4305,"RA_OF_ASC_NODE":143.5834,"ARG_OF_PERICENTER":313.8618,"MEAN_ANOMALY":46.2533,"EPHEMERIS_TYPE":0,"CLASSIFICATION_TYPE":"U","NORAD_CAT_ID":66737,"ELEMENT_SET_NO":999,"REV_AT_EPOCH":1449,"BSTAR":0.00036111821,"MEAN_MOTION_DOT":7.553e-5,"MEAN_MOTION_DDOT":0},{"OBJECT_NAME":"COSMOS 2251 DEB","OBJECT_ID":"1993-036BK","EPOCH":"2026-03-09T19:57:45.204480","MEAN_MOTION":15.2250442,"ECCENTRICITY":0.00171058,"INCLINATION":74.0815,"RA_OF_ASC_NODE":344.9963,"ARG_OF_PERICENTER":285.2465,"MEAN_ANOMALY":74.6843,"EPHEMERIS_TYPE":0,"CLASSIFICATION_TYPE":"U","NORAD_CAT_ID":33818,"ELEMENT_SET_NO":999,"REV_AT_EPOCH":91183,"BSTAR":0.0028725842,"MEAN_MOTION_DOT":0.00067433,"MEAN_MOTION_DDOT":0}]
